O3B FM10                
1 40348U 14083A   26094.79950062 -.00000026  00000+0  00000+0 0  9991
2 40348   0.0434 335.9114 0002688  36.1585 347.9352  5.00115376206223
O3B FM11                
1 40349U 14083B   26095.01208789 -.00000026  00000+0  00000+0 0  9990
2 40349   0.0580   0.0123 0003008   1.2193 358.7679  5.00115634206253
O3B FM12                
1 40350U 14083C   26095.03916172 -.00000026  00000+0  00000+0 0  9996
2 40350   0.0571 359.5496 0002583  10.9095 349.5449  5.00115951206261
O3B FM9                 
1 40351U 14083D   26093.26697712 -.00000026  00000+0  00000+0 0  9996
2 40351   0.0591   0.1634 0002706  11.5018 348.3391  5.00115977206324
ASTRA 2G                
1 40364U 14089A   26095.21711404  .00000151  00000+0  00000+0 0  9996
2 40364   0.0510   3.2595 0004924  42.3758 254.2388  1.00273844 41238
SES-9                   
1 41380U 16013A   26095.26718331 -.00000344  00000+0  00000+0 0  9990
2 41380   0.0151 264.8098 0002062 149.9234 343.3098  1.00271767 36701
SES-10                  
1 42432U 17017A   26094.94739139 -.00000272  00000+0  00000+0 0  9997
2 42432   0.0190  90.0286 0002953 299.7399  77.6474  1.00271137 33024
SES-15                  
1 42709U 17026A   26095.24280647  .00000061  00000+0  00000+0 0  9998
2 42709   0.0309 319.9281 0000760  63.9952 127.8662  1.00270997  6706
SES-11 (ECHOSTAR 105)   
1 42967U 17063A   26095.15373914 -.00000088  00000+0  00000+0 0  9995
2 42967   0.0509  53.4038 0002841 339.2332 111.2206  1.00272418 30996
SES-14                  
1 43175U 18012B   26095.16509252 -.00000277  00000+0  00000+0 0  9999
2 43175   0.0023  65.2678 0000989 307.9861 192.1556  1.00275364  6295
O3B FM15                
1 43231U 18024A   26092.13440900 -.00000027  00000+0  00000+0 0  9996
2 43231   0.0502   3.1354 0002633   6.1622 350.7046  5.00115731147223
O3B FM16                
1 43232U 18024B   26095.18512835 -.00000025  00000+0  00000+0 0  9990
2 43232   0.0472   6.5481 0002696   4.2611 349.1954  5.00116016147287
O3B FM14                
1 43233U 18024C   26094.82611740 -.00000026  00000+0  00000+0 0  9997
2 43233   0.0457   6.0929 0002850   8.8259 345.0883  5.00115735147286
O3B FM13                
1 43234U 18024D   26084.69755415 -.00000024  00000+0  00000+0 0  9998
2 43234   0.0470 335.8508 0003967 348.6026  35.5167  5.00115556146887
SES-12                  
1 43488U 18049A   26095.12201903 -.00000269  00000+0  00000+0 0  9995
2 43488   0.0400  47.8430 0001646 265.9853  18.5234  1.00272409 28686
O3B FM20                
1 44112U 19020A   26095.05203959 -.00000025  00000+0  00000+0 0  9995
2 44112   0.0530   0.9141 0002663   2.6728 356.4138  5.00115564127905
O3B FM19                
1 44113U 19020B   26095.07913541 -.00000026  00000+0  00000+0 0  9994
2 44113   0.0578 352.7385 0004290  10.0637 357.1990  5.00116062127780
